#aV2006  3 26  0  0   .00000000      96 DD+AD WGS84 FIT  NGA
## 1368       .00000000   900.00000000 53820  .0000000000000
+   29     1  2  3  4  5  6  7  8  9 10 11 13 14 15 16 17 18
+         19 20 21 22 23 24 25 26 27 28 29 30  0  0  0  0  0
+          0  0  0  0  0  0  0  0  0  0  0  0  0  0  0  0  0
+          0  0  0  0  0  0  0  0  0  0  0  0  0  0  0  0  0
+          0  0  0  0  0  0  0  0  0  0  0  0  0  0  0  0  0
++         0  0  0  0  0  0  0  0  0  0  0  0  0  0  0  0  0
++         0  0  0  0  0  0  0  0  0  0  0  0  0  0  0  0  0
++         0  0  0  0  0  0  0  0  0  0  0  0  0  0  0  0  0
++         0  0  0  0  0  0  0  0  0  0  0  0  0  0  0  0  0
++         0  0  0  0  0  0  0  0  0  0  0  0  0  0  0  0  0
%c cc cc ccc ccc cccc cccc cccc cccc ccccc ccccc ccccc ccccc
%c cc cc ccc ccc cccc cccc cccc cccc ccccc ccccc ccccc ccccc
%f  0.0000000  0.000000000  0.00000000000  0.000000000000000
%f  0.0000000  0.000000000  0.00000000000  0.000000000000000
%i    0    0    0    0      0      0      0      0         0
%i    0    0    0    0      0      0      0      0         0
/*      NGA, ST. LOUIS,MO.                                  
/*   EPHEMERIS COMPUTED FROM  3 DAYS OF DATA                
/* CCCCCCCCCCCCCCCCCCCCCCCCCCCCCCCCCCCCCCCCCCCCCCCCCCCCCCCCC
/* CCCCCCCCCCCCCCCCCCCCCCCCCCCCCCCCCCCCCCCCCCCCCCCCCCCCCCCCC
*  2006  3 26 10 15   .00000000                                                 
P  1  20167.617174  14169.829439  -9754.022838     43.486983                    
V  1   6702.731076  10848.217269  28992.097201       .021758                    
P  2 -14922.723932  -4431.289727 -21789.387126    -12.576507                    
V  2   8229.165106 -25785.321072   -581.779993       .019689                    
P  3  22173.443946   7811.277455  12481.890059     84.957435                    
V  3   9749.750393  13120.580841 -24900.811750       .032038                    
P  4  -9838.476684 -14703.387825 -19737.284355    187.598838                    
V  4   9599.845104 -23270.452444  12920.787312       .106030                    
P  5 -20034.041914  13954.454987 -10443.563502   -278.990126                    
V  5 -13444.813556    684.940421  27378.455232       .738684                    
P  6   -960.659589  18790.569762 -18522.587289    429.762723                    
V  6 -17989.367583 -16056.909897 -15277.236085       .268040                    
P  7   6944.353871  21285.804258 -13890.824465    519.409876                    
V  7 -15059.949610 -10831.748241 -23649.344923       .058571                    
P  8  -2528.987741 -21762.409309  14578.614897    -60.674088                    
V  8   8595.553916 -16971.717228 -24000.246905      -.013215                    
P  9 -14476.358367  17453.959911  13049.635076     13.433662                    
V  9   2270.611933 -17626.192587  25352.237363       .016254                    
P 10 -26082.540809    882.125052  -5859.906686     80.778524                    
V 10   6745.746399  -3332.569793 -30707.122091       .007006                    
P 11  13564.003540 -18769.938549  12724.635522    316.143663                    
V 11   1072.049479  16972.868961  24016.732753       .025806                    
P 13   -754.556702 -19305.471101 -18332.333089     50.075832                    
V 13  15731.709665  16837.370568 -18398.276583       .026387                    
P 14  15321.394134  21376.279914   3946.813552    -17.145828                    
V 14  -4703.845034  -2398.265844  31752.039206       .006993                    
P 15   1706.139937  22094.523216  14181.807185    586.382020                    
V 15  -9361.404062  16108.169747 -24070.247188       .060914                    
P 16  23656.571393   3447.988635 -11589.281674     33.191172                    
V 16 -14061.220623   5193.895455 -26860.361376       .021016                    
P 17 -14576.202296 -21642.893028   5188.952198     73.813272                    
V 17   6398.100022   3116.488056  30780.143224       .056742                    
P 18  -4483.274806  15684.852559  21000.069228   -227.666139                    
V 18 -26303.958463   3452.897580  -8523.311771      -.019147                    
P 19  16445.993896  -2773.101038  20780.672633    -17.609421                    
V 19  15635.593259  20981.911350  -9584.835040       .013364                    
P 20  20236.458610 -12782.322377 -11567.602540    -29.881596                    
V 20  14755.293830   -732.463168  26866.912812       .007953                    
P 21  -4421.924577  25144.750921   6309.478731     16.441243                    
V 21  -6218.311532   6326.621545 -30301.449696       .030360                    
P 22  10609.938592  13103.999745  20676.668125     79.501768                    
V 22 -25466.242365   4922.366121  10021.556176       .036245                    
P 23  10248.499370 -11147.577709 -21904.420198    145.947634                    
V 23  18625.980880  20343.779805  -1795.578161      -.011842                    
P 24   1095.380141 -23988.821274 -10833.038935     95.741263                    
V 24   7615.609306 -12283.518890  27625.200291       .029976                    
P 25  12205.193952  11324.319180 -20264.479646     -7.206553                    
V 25  -6991.163955  25795.412899  10125.286368       .150826                    
P 26 -18199.395022  -1990.909767  19086.974844    -69.466547                    
V 26 -15543.560305 -19299.512387 -15937.577500      -.099069                    
P 27   2312.049222 -25708.613890   6016.137574     41.527521                    
V 27   4675.600961  -5966.379835 -30663.066801       .016705                    
P 28  -7291.555495 -14027.393596  21661.756855     30.756234                    
V 28  26269.172059  -5343.870583   5109.976718      -.007626                    
P 29 -19873.642759  -4663.454939  17380.896760    570.356580                    
V 29 -13730.341715 -16491.698889 -20150.053149       .095526                    
P 30 -11430.860592  16185.124736 -17911.297922     46.517776                    
V 30 -22080.496103   3555.536692  17692.186657       .625174                    
EOF
